41925,IRIDIUM 112,2017,100.4,860.0,+,86.4,Active,1,LEO,USA,USA,Commercial/Government,Communications,Falcon,1 41925U 17003J   24161.19191893  .00000333  00000+0  11193-3 0  9993,2 41925  86.3979  36.7120 0002183  77.2360 282.9080 14.34220800387497,14.342208,0.0002183,LEO
41926,IRIDIUM 111,2017,100.4,860.0,+,86.4,Active,1,LEO,USA,USA,Commercial/Government,Communications,Falcon,1 41926U 17003K   24161.17923312  .00000538  00000+0  18487-3 0  9991,2 41926  86.3981  36.7717 0001883  80.5275 279.6133 14.34221647387471,14.34221647,0.0001883,LEO
42803,IRIDIUM 113,2017,100.4,860.0,+,86.4,Active,1,LEO,USA,USA,Commercial/Government,Communications,Falcon,1 42803U 17039A   24161.36850738  .00000085  00000+0  23247-4 0  9995,2 42803  86.3966 270.4513 0002046  94.8684 265.2745 14.34218358365431,14.34218358,0.0002046,LEO
42804,IRIDIUM 123,2017,100.4,860.0,+,86.39,Active,1,LEO,USA,USA,Commercial/Government,Communications,Falcon,1 42804U 17039B   24161.47975480  .00000171  00000+0  54115-4 0  9994,2 42804  86.3951 301.9182 0001980  93.0325 267.1097 14.34218123364213,14.34218123,0.000198,LEO
42805,IRIDIUM 120,2017,100.4,860.0,+,86.4,Active,1,LEO,USA,USA,Commercial/Government,Communications,Falcon,1 42805U 17039C   24161.36216605  .00000049  00000+0  10386-4 0  9996,2 42805  86.3954 270.3319 0002296  95.8996 264.2461 14.34217923365427,14.34217923,0.0002296,LEO
42806,IRIDIUM 115,2017,99.77,860.0,+,86.45,Active,1,LEO,USA,USA,Commercial/Government,Communications,Falcon,1 42806U 17039D   24161.36909689  .00000899  00000+0  26110-3 0  9992,2 42806  86.4492 270.3524 0001940  93.1106 267.0317 14.43291828367848,14.43291828,0.000194,LEO
42807,IRIDIUM 118,2017,100.4,860.0,+,86.4,Active,1,LEO,USA,USA,Commercial/Government,Communications,Falcon,1 42807U 17039E   24161.44170013  .00000367  00000+0  12412-3 0  9993,2 42807  86.3952 301.9355 0002268  89.2515 270.8941 14.34217504364207,14.34217504,0.0002268,LEO
42808,IRIDIUM 117,2017,100.4,860.0,+,86.39,Active,1,LEO,USA,USA,Commercial/Government,Communications,Falcon,1 42808U 17039F   24161.46072738  .00000121  00000+0  36281-4 0  9990,2 42808  86.3951 301.8921 0001976  96.0119 264.1302 14.34217615364239,14.34217615,0.0001976,LEO
